CUBEBUG-2 (LO-74)
1 39440U 13066AA  26178.44573602  .00004522  00000-0  41800-3 0  9990
2 39440  97.8904 127.4676 0057370 355.1187   4.9465 14.93843373678525
FUNCUBE-1 (AO-73)
1 39444U 13066AE  26178.46362471  .00006965  00000-0  43065-3 0  9994
2 39444  97.8272 150.1245 0036701 165.9827 194.2429 15.09608220681216
UWE-3
1 39446U 13066AG  26178.37512397  .00003939  00000-0  33924-3 0  9991
2 39446  97.8711 134.5185 0046852 286.5601  73.0477 14.97105465679104
UNISAT-6
1 40012U 14033C   26178.41999545  .00002722  00000-0  29484-3 0  9991
2 40012  97.7883 330.9523 0045636  36.3375 324.0925 14.88293600647684
DUCHIFAT-1
1 40021U 14033M   26178.12074074  .00123708  00000-0  11664-2 0  9998
2 40021  98.0447 238.6906 0001012 103.7667 256.3704 15.66663856657309
LILACSAT-2
1 40908U 15049K   26178.52648132  .00018347  00000-0  30854-3 0  9991
2 40908  97.4636 215.7623 0006505 199.7260 160.3742 15.51778307597350
CAS-2T & KS-1Q
1 41847U 16066G   26178.21399966  .00001654  00000-0  23813-3 0  9998
2 41847  98.3821 253.8357 0342893  99.1618 264.8526 14.44725785506240
FOX-1B (AO-91)
1 43017U 17073E   26177.86511221  .00006924  00000-0  30344-3 0  9990
2 43017  97.4694  44.8822 0148601 295.5005  63.0920 15.12844339466859
FUNCUBE-3 (EO-79)/QB50P1
1 40025U 14033R   26178.29918808  .00008713  00000-0  42669-3 0  9990
2 40025  98.0962 190.1548 0008862 179.4885 180.6358 15.18409172654566
FOX-1A (AO-85)
1 40967U 15058D   26178.48069744  .00002243  00000-0  20735-3 0  9992
2 40967  64.7747 246.9939 0131066  52.5906 308.7051 14.91011402115104
DIWATA-2B (PO-101)
1 43678U 18084H   26178.50634025  .00002191  00000-0  17885-3 0  9993
2 43678  98.1203  15.1647 0013034 138.0155 222.2069 15.00495959417766
ESHAIL-2
1 43700U 18090A   26178.31233616  .00000000  00000-0  00000+0 0  9990
2 43700   0.0265  11.9662 0002174 117.6457 284.0407  1.00270194 27771
ITASAT-1
1 43786U 18099AE  26178.42911971  .00007300  00000-0  34965-3 0  9993
2 43786  97.4027 229.7364 0011133 321.8979  38.1467 15.19179103414465
FOX-1CLIFF (AO-95)
1 43770U 18099N   26178.43272890  .00012348  00000-0  46923-3 0  9992
2 43770  97.4387 238.6418 0007089 317.1326  42.9359 15.26921972414780
JY1SAT (JO-97)
1 43803U 18099AX  26178.40365889  .00018194  00000-0  55516-3 0  9990
2 43803  97.4133 241.2746 0005142 217.6111 142.4773 15.33970053415198
UWE-4
1 43880U 18111E   26178.30956677  .00034249  00000-0  68407-3 0  9992
2 43880  97.5849 107.1708 0004309 288.7477  71.3304 15.46742585412349
CAS-6 (TO-108)
1 44881U 19093C   26178.47815449  .00000849  00000-0  10173-3 0  9999
2 44881  97.7532 250.4592 0014851  56.3877 303.8754 14.86534020352948
DOSAAF-85 (RS-44)
1 44909U 19096E   26178.48146985  .00000014  00000-0  42781-5 0  9992
2 44909  82.5226 332.8635 0218482 120.1985 242.0952 12.79749034303662
SALSAT (TUBSAT 22)
1 46495U 20068K   26178.47981012  .00007487  00000-0  26096-3 0  9992
2 46495  97.8847 182.1720 0007835 263.9678  96.0668 15.29940196316931
CAMSAT XW-3 (CAS-9)
1 50466U 21131B   26178.53687815  .00000392  00000-0  13460-3 0  9997
2 50466  98.4985 270.8706 0005348  72.8048 287.3726 14.41366245236603
ROBUSTA 1F (MTCUBE-2)
1 53109U 22080E   26177.67811985 -.00000003  00000-0  00000-0 0  9992
2 53109  70.1443 294.9444 0008985 287.5437  72.4241  6.42583228 92675
UMKA-1 (RS40S)
1 57172U 23091G   26178.48934323  .00006099  00000-0  27801-3 0  9992
2 57172  97.5051 237.1470 0014266  85.9031 274.3834 15.20933191165579
CUBESX-HSE-3 (RS42S)
1 57178U 23091N   26178.49831142  .00012991  00000-0  42900-3 0  9999
2 57178  97.5095 244.2166 0011459  62.4810 297.7594 15.31467434166005
MONITOR-3 (RS58S)
1 57180U 23091Q   26178.48021135  .00010315  00000-0  37889-3 0  9992
2 57180  97.5086 242.0023 0012680  68.8263 291.4330 15.28042706165864
MONITOR-4 (RS57S)
1 57182U 23091S   26178.52417831  .00010872  00000-0  39815-3 0  9990
2 57182  97.5080 242.0184 0012680  68.9230 291.3364 15.28128708165877
MONITOR-2 (RS39S)
1 57184U 23091U   26178.52359028  .00005034  00000-0  24336-3 0  9991
2 57184  97.5072 236.7397 0012669  79.8372 280.4291 15.19002503165525
SVYATOBOR-1 (RS60S)
1 57187U 23091X   26178.48070243  .00008682  00000-0  33204-3 0  9994
2 57187  97.5092 242.3550 0010438  63.3608 296.8699 15.26783883165883
VIZARD-METEO (RS38S)
1 57189U 23091Z   26178.50471225  .00016698  00000-0  47262-3 0  9999
2 57189  97.5095 248.1980 0007458  45.5240 314.6613 15.36344830166276
UTMN-2 (RS27S)
1 57203U 23091AP  26178.51029007  .00012795  00000-0  41219-3 0  9994
2 57203  97.5091 245.8752 0008575  52.3443 307.8575 15.32296433166128
POLYTECH UNIVERSE-3 (RS46S)
1 57191U 23091AB  26178.48354419  .00004940  00000-0  23709-3 0  9991
2 57191  97.5048 236.2041 0017076  94.3113 266.0073 15.19208647165513
