OBJECT_NAME,OBJECT_ID,EPOCH,MEAN_MOTION,ECCENTRICITY,INCLINATION,RA_OF_ASC_NODE,ARG_OF_PERICENTER,MEAN_ANOMALY,EPHEMERIS_TYPE,CLASSIFICATION_TYPE,NORAD_CAT_ID,ELEMENT_SET_NO,REV_AT_EPOCH,BSTAR,MEAN_MOTION_DOT,MEAN_MOTION_DDOT
CUBEBUG-2 (LO-74),2013-066AA,2026-06-27T10:41:51.592128,14.93843373,.005737,97.8904,127.4676,355.1187,4.9465,0,U,39440,999,67852,.418E-3,.4522E-4,0
FUNCUBE-1 (AO-73),2013-066AE,2026-06-27T11:07:37.174944,15.09608220,.0036701,97.8272,150.1245,165.9827,194.2429,0,U,39444,999,68121,.43065E-3,.6965E-4,0
UWE-3,2013-066AG,2026-06-27T09:00:10.711008,14.97105465,.0046852,97.8711,134.5185,286.5601,73.0477,0,U,39446,999,67910,.33924E-3,.3939E-4,0
UNISAT-6,2014-033C,2026-06-27T10:04:47.606880,14.88293600,.0045636,97.7883,330.9523,36.3375,324.0925,0,U,40012,999,64768,.29484E-3,.2722E-4,0
DUCHIFAT-1,2014-033M,2026-06-27T02:53:51.999936,15.66663856,.00010124,98.0447,238.6906,103.7667,256.3704,0,U,40021,999,65730,.11663849E-2,.123708E-2,0
QB50P1,2014-033R,2026-06-27T07:10:49.850112,15.18409172,.0008862,98.0962,190.1548,179.4885,180.6358,0,U,40025,999,65456,.42669E-3,.8713E-4,0
LILACSAT-2,2015-049K,2026-06-27T12:38:07.986048,15.51778307,.0006505,97.4636,215.7623,199.7260,160.3742,0,U,40908,999,59735,.30854E-3,.18347E-3,0
FOX-1A (AO-85),2015-058D,2026-06-27T11:32:12.258816,14.91011402,.0131066,64.7747,246.9939,52.5906,308.7051,0,U,40967,999,11510,.20735E-3,.2243E-4,0
CAS-2T & KS-1Q,2016-066G,2026-06-27T05:08:09.570624,14.44725785,.03428934,98.3821,253.8357,99.1618,264.8526,0,U,41847,999,50624,.23813313E-3,.1654E-4,0
RADFXSAT (FOX-1B),2017-073E,2026-06-26T20:45:45.694944,15.12844339,.01486006,97.4694,44.8822,295.5005,63.0920,0,U,43017,999,46685,.30343911E-3,.6924E-4,0
DIWATA-2B,2018-084H,2026-06-27T12:09:07.797600,15.00495959,.0013034,98.1203,15.1647,138.0155,222.2069,0,U,43678,999,41776,.17885E-3,.2191E-4,0
ES'HAIL 2,2018-090A,2026-06-27T07:29:45.844224,1.00270194,.0002174,0.0265,11.9662,117.6457,284.0407,0,U,43700,999,2777,0,0,0
FOX-1CLIFF (AO-95),2018-099N,2026-06-27T10:23:07.776960,15.26921972,.0007089,97.4387,238.6418,317.1326,42.9359,0,U,43770,999,41478,.46923E-3,.12348E-3,0
ITASAT,2018-099AE,2026-06-27T10:17:55.942944,15.19179103,.0011133,97.4027,229.7364,321.8979,38.1467,0,U,43786,999,41446,.34965E-3,.73E-4,0
JY1SAT (JO-97),2018-099AX,2026-06-27T09:41:16.128096,15.33970053,.0005142,97.4133,241.2746,217.6111,142.4773,0,U,43803,999,41519,.55516E-3,.18194E-3,0
UWE-4,2018-111E,2026-06-27T07:25:46.568928,15.46742585,.0004309,97.5849,107.1708,288.7477,71.3304,0,U,43880,999,41234,.68407E-3,.34249E-3,0
TIANYAN 01,2019-093C,2026-06-27T11:28:32.547936,14.86534020,.0014851,97.7532,250.4592,56.3877,303.8754,0,U,44881,999,35294,.10173E-3,.849E-5,0
RS-44 & BREEZE-KM R/B,2019-096E,2026-06-27T11:33:18.995040,12.79749034,.0218482,82.5226,332.8635,120.1985,242.0952,0,U,44909,999,30366,.42781E-5,.14E-6,0
SALSAT,2020-068K,2026-06-27T11:30:55.594368,15.29940196,.0007835,97.8847,182.1720,263.9678,96.0668,0,U,46495,999,31693,.26096E-3,.7487E-4,0
XW-3 (CAS-9),2021-131B,2026-06-27T12:53:06.272160,14.41366245,.0005348,98.4985,270.8706,72.8048,287.3726,0,U,50466,999,23660,.1346E-3,.392E-5,0
GREENCUBE (IO-117),2022-080E,2026-06-26T16:16:29.555040,6.42583228,.00089846,70.1443,294.9444,287.5437,72.4241,0,U,53109,999,9267,0,-.3E-7,0
UMKA 1 (RS40S),2023-091G,2026-06-27T11:44:39.255072,15.20933191,.0014266,97.5051,237.1470,85.9031,274.3834,0,U,57172,999,16557,.27801E-3,.6099E-4,0
CUBESX-HSE 3 (RS42S),2023-091N,2026-06-27T11:57:34.106688,15.31467434,.0011459,97.5095,244.2166,62.4810,297.7594,0,U,57178,999,16600,.429E-3,.12991E-3,0
MONITOR-3 (RS58S),2023-091Q,2026-06-27T11:31:30.260640,15.28042706,.001268,97.5086,242.0023,68.8263,291.4330,0,U,57180,999,16586,.37889E-3,.10315E-3,0
MONITOR-4 (RS57S),2023-091S,2026-06-27T12:34:49.005984,15.28128708,.001268,97.5080,242.0184,68.9230,291.3364,0,U,57182,999,16587,.39815E-3,.10872E-3,0
MONITOR-2 (RS39S),2023-091U,2026-06-27T12:33:58.200192,15.19002503,.0012669,97.5072,236.7397,79.8372,280.4291,0,U,57184,999,16552,.24336E-3,.5034E-4,0
SVYATOBOR 1 (RS60S),2023-091X,2026-06-27T11:32:12.689952,15.26783883,.0010438,97.5092,242.3550,63.3608,296.8699,0,U,57187,999,16588,.33204E-3,.8682E-4,0
VIZARD-METEO (RS38S),2023-091Z,2026-06-27T12:06:47.138400,15.36344830,.0007458,97.5095,248.1980,45.5240,314.6613,0,U,57189,999,16627,.47262E-3,.16698E-3,0
POLYTECH-UNIVERSE 3 (RS46S),2023-091AB,2026-06-27T11:36:18.218016,15.19208647,.0017076,97.5048,236.2041,94.3113,266.0073,0,U,57191,999,16551,.23709E-3,.494E-4,0
UTMN 2 (RS27S),2023-091AP,2026-06-27T12:14:49.062048,15.32296433,.0008575,97.5091,245.8752,52.3443,307.8575,0,U,57203,999,16612,.41219E-3,.12795E-3,0
